[{"OBJECT_NAME":"STARLINK-4291","OBJECT_ID":"2022-076C","EPOCH":"2026-03-09T12:13:03.705888","MEAN_MOTION":15.08832472,"ECCENTRICITY":0.00014193,"INCLINATION":53.2165,"RA_OF_ASC_NODE":94.9284,"ARG_OF_PERICENTER":87.4333,"MEAN_ANOMALY":272.6821,"EPHEMERIS_TYPE":0,"CLASSIFICATION_TYPE":"U","NORAD_CAT_ID":52988,"ELEMENT_SET_NO":999,"REV_AT_EPOCH":20281,"BSTAR":4.8660881e-5,"MEAN_MOTION_DOT":4.86e-6,"MEAN_MOTION_DDOT":0},{"OBJECT_NAME":"YUNYAO-1 48","OBJECT_ID":"2025-059F","EPOCH":"2026-03-09T22:24:05.789376","MEAN_MOTION":15.10574052,"ECCENTRICITY":0.00165064,"INCLINATION":97.6074,"RA_OF_ASC_NODE":250.9983,"ARG_OF_PERICENTER":137.6901,"MEAN_ANOMALY":222.5605,"EPHEMERIS_TYPE":0,"CLASSIFICATION_TYPE":"U","NORAD_CAT_ID":63349,"ELEMENT_SET_NO":999,"REV_AT_EPOCH":5331,"BSTAR":0.00030523847,"MEAN_MOTION_DOT":4.989e-5,"MEAN_MOTION_DDOT":0}]
